{"type": "FeatureCollection", "features": [ {"type": "Feature", "properties": {"norad_id": 65942, "name": "BOTAN", "group": "stations", "lat": 22.239861466324992, "lon": -13.816832934186186, "alt_km": 380.9630161692139, "timestamp": "2025-12-03T15:48:01.939021+00:00", "meta": {"OBJECT_NAME": "BOTAN", "OBJECT_ID": "1998-067XP", "EPOCH": "2025-12-02T23:47:08.689920", "MEAN_MOTION": 15.60340743, "ECCENTRICITY": 0.00044311, "INCLINATION": 51.6288, "RA_OF_ASC_NODE": 188.4479, "ARG_OF_PERICENTER": 171.5775, "MEAN_ANOMALY": 188.5294, "EPHEMERIS_TYPE": 0, "CLASSIFICATION_TYPE": "U", "NORAD_CAT_ID": 65942, "ELEMENT_SET_NO": 999, "REV_AT_EPOCH": 834, "BSTAR": 0.001291095, "MEAN_MOTION_DOT": 0.00108801, "MEAN_MOTION_DDOT": 0}, "tle": {"line1": "1 65942U 98067XP  25336.99107280  .00108801  00000+0  12911-2 0  9994", "line2": "2 65942  51.6288 188.4479 0004431 171.5775 188.5294 15.60340743  8349"}}, "geometry": {"type": "Point", "coordinates": [-13.816832934186186, 22.239861466324992]}}, {"type": "Feature", "properties": {"norad_id": 65943, "name": "E-KAGAKU-1", "group": "stations", "lat": -50.09604671547179, "lon": 114.2202090163343, "alt_km": 400.0871538656611, "timestamp": "2025-12-03T15:48:01.939032+00:00", "meta": {"OBJECT_NAME": "E-KAGAKU-1", "OBJECT_ID": "1998-067XQ", "EPOCH": "2025-12-02T21:39:34.941600", "MEAN_MOTION": 15.57714998, "ECCENTRICITY": 0.00035202, "INCLINATION": 51.6296, "RA_OF_ASC_NODE": 189.358, "ARG_OF_PERICENTER": 147.4331, "MEAN_ANOMALY": 212.6879, "EPHEMERIS_TYPE": 0, "CLASSIFICATION_TYPE": "U", "NORAD_CAT_ID": 65943, "ELEMENT_SET_NO": 999, "REV_AT_EPOCH": 832, "BSTAR": 0.00096701912, "MEAN_MOTION_DOT": 0.00073283, "MEAN_MOTION_DDOT": 0}, "tle": {"line1": "1 65943U 98067XQ  25336.90248775  .00073283  00000+0  96702-3 0  9997", "line2": "2 65943  51.6296 189.3580 0003520 147.4331 212.6879 15.57714998  8329"}}, "geometry": {"type": "Point", "coordinates": [114.2202090163343, -50.09604671547179]}}, {"type": "Feature", "properties": {"norad_id": 66052, "name": "HRC MONOBLOCK CAMERA", "group": "stations", "lat": 46.405188555544385, "lon": -116.91970542138996, "alt_km": 400.40756648033675, "timestamp": "2025-12-03T15:48:01.939042+00:00", "meta": {"OBJECT_NAME": "HRC MONOBLOCK CAMERA", "OBJECT_ID": "1998-067XR", "EPOCH": "2025-12-03T07:47:25.348416", "MEAN_MOTION": 15.53212477, "ECCENTRICITY": 0.00043886, "INCLINATION": 51.6293, "RA_OF_ASC_NODE": 188.4201, "ARG_OF_PERICENTER": 146.7187, "MEAN_ANOMALY": 213.408, "EPHEMERIS_TYPE": 0, "CLASSIFICATION_TYPE": "U", "NORAD_CAT_ID": 66052, "ELEMENT_SET_NO": 999, "REV_AT_EPOCH": 737, "BSTAR": 0.0006296975, "MEAN_MOTION_DOT": 0.00040058, "MEAN_MOTION_DDOT": 0}, "tle": {"line1": "1 66052U 98067XR  25337.32459894  .00040058  00000+0  62970-3 0  9996", "line2": "2 66052  51.6293 188.4201 0004388 146.7187 213.4080 15.53212477  7370"}}, "geometry": {"type": "Point", "coordinates": [-116.91970542138996, 46.405188555544385]}}, {"type": "Feature", "properties": {"norad_id": 66174, "name": "HTV-X1", "group": "stations", "lat": 50.412919509377645, "lon": -65.92560252278989, "alt_km": 412.3415764468764, "timestamp": "2025-12-03T15:48:01.939055+00:00", "meta": {"OBJECT_NAME": "HTV-X1", "OBJECT_ID": "2025-241A", "EPOCH": "2025-12-03T01:26:08.635488", "MEAN_MOTION": 15.49262423, "ECCENTRICITY": 0.00036204, "INCLINATION": 51.6309, "RA_OF_ASC_NODE": 190.4017, "ARG_OF_PERICENTER": 198.708, "MEAN_ANOMALY": 161.3776, "EPHEMERIS_TYPE": 0, "CLASSIFICATION_TYPE": "U", "NORAD_CAT_ID": 66174, "ELEMENT_SET_NO": 999, "REV_AT_EPOCH": 51, "BSTAR": 0.00021764811, "MEAN_MOTION_DOT": 0.0001167, "MEAN_MOTION_DDOT": 0}, "tle": {"line1": "1 66174U 25241A   25337.05982217  .00011670  00000+0  21765-3 0  9990", "line2": "2 66174  51.6309 190.4017 0003620 198.7080 161.3776 15.49262423   511"}}, "geometry": {"type": "Point", "coordinates": [-65.92560252278989, 50.412919509377645]}}, {"type": "Feature", "properties": {"norad_id": 66515, "name": "SZ-21 MODULE", "group": "stations", "lat": 19.925167945998258, "lon": 95.64237982943149, "alt_km": 383.0309467215393, "timestamp": "2025-12-03T15:48:01.939065+00:00", "meta": {"OBJECT_NAME": "SZ-21 MODULE", "OBJECT_ID": "2025-246C", "EPOCH": "2025-12-03T07:59:41.918784", "MEAN_MOTION": 15.61790567, "ECCENTRICITY": 0.00058316, "INCLINATION": 41.4771, "RA_OF_ASC_NODE": 73.3983, "ARG_OF_PERICENTER": 205.8085, "MEAN_ANOMALY": 154.2464, "EPHEMERIS_TYPE": 0, "CLASSIFICATION_TYPE": "U", "NORAD_CAT_ID": 66515, "ELEMENT_SET_NO": 999, "REV_AT_EPOCH": 297, "BSTAR": 0.00036812116, "MEAN_MOTION_DOT": 0.0003262, "MEAN_MOTION_DDOT": 0}, "tle": {"line1": "1 66515U 25246C   25337.33312406  .00032620  00000+0  36812-3 0  9999", "line2": "2 66515  41.4771  73.3983 0005831 205.8085 154.2464 15.61790567  2978"}}, "geometry": {"type": "Point", "coordinates": [95.64237982943149, 19.925167945998258]}}, {"type": "Feature", "properties": {"norad_id": 66645, "name": "SHENZHOU-22", "group": "stations", "lat": -30.38228318803819, "lon": -66.58622046299439, "alt_km": 394.4929817928023, "timestamp": "2025-12-03T15:48:01.939074+00:00", "meta": {"OBJECT_NAME": "SHENZHOU-22", "OBJECT_ID": "2025-272A", "EPOCH": "2025-12-03T08:40:01.753824", "MEAN_MOTION": 15.58580261, "ECCENTRICITY": 0.00100709, "INCLINATION": 41.4677, "RA_OF_ASC_NODE": 73.6192, "ARG_OF_PERICENTER": 319.5464, "MEAN_ANOMALY": 40.4624, "EPHEMERIS_TYPE": 0, "CLASSIFICATION_TYPE": "U", "NORAD_CAT_ID": 66645, "ELEMENT_SET_NO": 999, "REV_AT_EPOCH": 26257, "BSTAR": 0.00034171532, "MEAN_MOTION_DOT": 0.00026743, "MEAN_MOTION_DDOT": 0}, "tle": {"line1": "1 66645U 25272A   25337.36113141  .00026743  00000+0  34172-3 0  9996", "line2": "2 66645  41.4677  73.6192 0010070 319.5464  40.4624 15.58580261262579"}}, "geometry": {"type": "Point", "coordinates": [-66.58622046299439, -30.38228318803819]}}, {"type": "Feature", "properties": {"norad_id": 66646, "name": "CZ-2F R/B", "group": "stations", "lat": -8.138349961603721, "lon": -102.52160210278072, "alt_km": 183.94985999964683, "timestamp": "2025-12-03T15:48:01.939105+00:00", "meta": {"OBJECT_NAME": "CZ-2F R/B", "OBJECT_ID": "2025-272B", "EPOCH": "2025-11-26T11:17:54.506400", "MEAN_MOTION": 16.01945612, "ECCENTRICITY": 0.01210796, "INCLINATION": 41.4431, "RA_OF_ASC_NODE": 114.9009, "ARG_OF_PERICENTER": 133.7676, "MEAN_ANOMALY": 227.3272, "EPHEMERIS_TYPE": 0, "CLASSIFICATION_TYPE": "U", "NORAD_CAT_ID": 66646, "ELEMENT_SET_NO": 999, "REV_AT_EPOCH": 21, "BSTAR": 0.00029319366, "MEAN_MOTION_DOT": 0.00449059, "MEAN_MOTION_DDOT": 7.567612e-06}, "tle": {"line1": "1 66646U 25272B   25330.47076975  .00449059  75676-5  29319-3 0  9998", "line2": "2 66646  41.4431 114.9009 0121079 133.7676 227.3272 16.01945612   217"}}, "geometry": {"type": "Point", "coordinates": [-102.52160210278072, -8.138349961603721]}}, {"type": "Feature", "properties": {"norad_id": 66664, "name": "SOYUZ-MS 28", "group": "stations", "lat": 50.412918536780914, "lon": -65.92559589882016, "alt_km": 412.3415763990897, "timestamp": "2025-12-03T15:48:01.939122+00:00", "meta": {"OBJECT_NAME": "SOYUZ-MS 28", "OBJECT_ID": "2025-275A", "EPOCH": "2025-12-03T01:26:08.635488", "MEAN_MOTION": 15.49262423, "ECCENTRICITY": 0.00036204, "INCLINATION": 51.6309, "RA_OF_ASC_NODE": 190.4017, "ARG_OF_PERICENTER": 198.708, "MEAN_ANOMALY": 161.3776, "EPHEMERIS_TYPE": 0, "CLASSIFICATION_TYPE": "U", "NORAD_CAT_ID": 66664, "ELEMENT_SET_NO": 999, "REV_AT_EPOCH": 94, "BSTAR": 0.00021764811, "MEAN_MOTION_DOT": 0.0001167, "MEAN_MOTION_DDOT": 0}, "tle": {"line1": "1 66664U 25275A   25337.05982217  .00011670  00000+0  21765-3 0  9991", "line2": "2 66664  51.6309 190.4017 0003620 198.7080 161.3776 15.49262423   942"}}, "geometry": {"type": "Point", "coordinates": [-65.92559589882016, 50.412918536780914]}}]}